STARLINK-31630          
1 59271U 24050T   24092.58334491 -.01732394  00000+0 -19290-1 0  9991
2 59271  53.1611 236.6877 0000970  71.6656 129.1997 15.65561285  3284
STARLINK-31623          
1 59272U 24050U   24092.75001157 -.01701685  00000+0 -19395-1 0  9996
2 59272  53.1609 235.8769 0001181  65.0835 353.4726 15.64919152  3331
STARLINK-31595          
1 59273U 24050V   24093.08335648 -.01776128  00000+0 -20937-1 0  9997
2 59273  53.1607 234.2385 0001192  77.2930  63.5169 15.63691731  3395
2024-052A               
1 59280U 24052A   24093.55537136 -.00000094  00000+0  63660-4 0  9998
2 59280  50.0996 185.3366 0005656 250.6766 109.3497 13.32995081  1657
2024-052B               
1 59281U 24052B   24093.55266442 -.00000096  00000+0  60270-4 0  9994
2 59281  50.0974 185.3245 0005139 263.8462  96.1827 13.33291418  1659
2024-052C               
1 59282U 24052C   24093.54978755 -.00000098  00000+0  54879-4 0  9991
2 59282  50.0997 185.3095 0005356 281.1236  78.9037 13.33606218  1650
2024-052D               
1 59283U 24052D   24093.55961465  .00014422  00000+0  51645-3 0  9995
2 59283  50.0983 168.7598 0007449 315.3926  44.6433 15.28922430  1899
2024-052E               
1 59284U 24052E   24093.55670689  .00014960  00000+0  52908-3 0  9991
2 59284  50.1003 168.7394 0008736 322.8129  37.2224 15.29292268  1881
2024-052F               
1 59285U 24052F   24093.55390046  .00015194  00000+0  53127-3 0  9992
2 59285  50.0991 168.7229 0009699 329.4331  30.6062 15.29645083  1885
DRAGON CRS-30           
1 59287U 24054A   24092.37988377  .00016993  00000+0  30694-3 0  9997
2 59287  51.6392 336.1951 0004566  24.6607 335.4599 15.49820868446635
SOYUZ-MS 25             
1 59294U 24055A   24092.37988377  .00016993  00000+0  30694-3 0  9996
2 59294  51.6392 336.1951 0004566  24.6607 335.4599 15.49820868446633
STARLINK-31463          
1 59296U 24056A   24093.58334491 -.00641810  00000+0 -28407-2 0  9997
2 59296  43.0053 308.0107 0001764 262.4919  69.0605 15.85003301  2619
STARLINK-31487          
1 59297U 24056B   24093.58334491 -.00650393  00000+0 -28712-2 0  9993
2 59297  43.0050 308.0009 0001536 271.2933  64.1381 15.85078873  2713
STARLINK-31386          
1 59298U 24056C   24093.58334491 -.00643212  00000+0 -28424-2 0  9996
2 59298  43.0052 308.0061 0001773 277.5680  55.8878 15.85039113  2346
STARLINK-31409          
1 59299U 24056D   24093.58334491 -.00654483  00000+0 -28851-2 0  9993
2 59299  43.0052 307.9954 0001563 273.9185  63.6852 15.85117888  2719
STARLINK-31489          
1 59300U 24056E   24093.58334491 -.00656084  00000+0 -28874-2 0  9990
2 59300  43.0051 307.9905 0001746 278.1365  61.3881 15.85154012  2613
STARLINK-31502          
1 59301U 24056F   24093.58334491 -.00658898  00000+0 -28954-2 0  9995
2 59301  43.0049 307.9857 0001906 276.5221  64.8806 15.85190368  2347
STARLINK-31447          
1 59302U 24056G   24093.58334491 -.00669718  00000+0 -29412-2 0  9999
2 59302  43.0049 307.9804 0001418 271.2032  72.0966 15.85231880  2613
STARLINK-31504          
1 59303U 24056H   24093.58334491 -.00673302  00000+0 -29521-2 0  9995
2 59303  43.0050 307.9750 0001780 267.4436  78.2142 15.85271020  2617
STARLINK-31474          
1 59304U 24056J   24093.58334491 -.00676967  00000+0 -29638-2 0  9995
2 59304  43.0047 307.9687 0001708 277.6501  70.3703 15.85310404  2402
STARLINK-31500          
1 59305U 24056K   24093.58334491 -.00678264  00000+0 -29647-2 0  9998
2 59305  43.0049 307.9638 0001830 277.6304  72.2165 15.85345467  2554
STARLINK-31480          
1 59306U 24056L   24093.58334491 -.00686218  00000+0 -29964-2 0  9999
2 59306  43.0046 307.9594 0001846 278.5808  73.2361 15.85384905  2468
STARLINK-31282          
1 59307U 24056M   24093.58334491 -.00686090  00000+0 -29910-2 0  9999
2 59307  43.0051 307.9551 0001755 278.4799  74.9825 15.85418523  2619
STARLINK-31485          
1 59308U 24056N   24093.58334491 -.00693675  00000+0 -30206-2 0  9997
2 59308  43.0047 307.9486 0001760 274.7330  81.1142 15.85459701  2613
STARLINK-31455          
1 59309U 24056P   24093.58334491 -.00702089  00000+0 -30539-2 0  9997
2 59309  43.0043 307.9431 0001859 269.7541  88.3814 15.85500887  2412
STARLINK-31475          
1 59310U 24056Q   24093.58334491 -.00704104  00000+0 -30581-2 0  9996
2 59310  43.0047 307.9374 0001671 276.9127  83.3682 15.85537732  2716
STARLINK-31469          
1 59311U 24056R   24093.58334491 -.00712000  00000+0 -30892-2 0  9996
2 59311  43.0046 307.9314 0001528 273.5071  89.0762 15.85578527  2711
STARLINK-31445          
1 59312U 24056S   24093.58334491 -.00719119  00000+0 -31163-2 0  9997
2 59312  43.0045 307.9261 0001726 264.2033 100.5567 15.85618315  2618
STARLINK-31495          
1 59313U 24056T   24093.58334491 -.00719982  00000+0 -31149-2 0  9990
2 59313  43.0044 307.9207 0001736 277.9279  89.0042 15.85653929  2611
STARLINK-31477          
1 59314U 24056U   24093.58334491 -.00728013  00000+0 -31465-2 0  9997
2 59314  43.0043 307.9154 0001703 270.6946  98.2586 15.85693349  2612
STARLINK-31446          
1 59315U 24056V   24093.58334491 -.00734802  00000+0 -31723-2 0  9998
2 59315  43.0043 307.9099 0001632 266.4071 104.7099 15.85732621  2613
STARLINK-31479          
1 59316U 24056W   24093.58334491 -.00736326  00000+0 -31738-2 0  9998
2 59316  43.0045 307.9047 0001696 276.2272  97.0339 15.85768246  2614
STARLINK-31349          
1 59317U 24056X   24093.58334491 -.00738811  00000+0 -31799-2 0  9997
2 59317  43.0045 307.8999 0001679 278.1686  96.9712 15.85803744  2662
STARLINK-31464          
1 59318U 24056Y   24093.58334491 -.00747051  00000+0 -32118-2 0  9990
2 59318  43.0045 307.8946 0001920 269.2575 108.0564 15.85843399  2617
STARLINK-31402          
1 59320U 24057A   24093.58334491 -.00988619  00000+0 -43720-2 0  9992
2 59320  43.0031 269.5068 0001399 272.2309 249.7216 15.85846005  2459
STARLINK-31578          
1 59321U 24057B   24093.58334491 -.00990147  00000+0 -43703-2 0  9993
2 59321  43.0030 269.5028 0001280 271.9827 251.3794 15.85890202  2408
STARLINK-31530          
1 59322U 24057C   24093.58334491 -.00995435  00000+0 -43847-2 0  9998
2 59322  43.0028 269.4989 0001292 268.2692 256.5785 15.85944213  2402
STARLINK-31565          
1 59323U 24057D   24093.58334491 -.01009713  00000+0 -44284-2 0  9991
2 59323  43.0027 269.4898 0001624 267.6534 260.8171 15.86062849  2402
STARLINK-31570          
1 59324U 24057E   24093.58334491 -.01003820  00000+0 -44124-2 0  9998
2 59324  43.0028 269.4941 0001363 274.8717 251.9439 15.86006161  2409
STARLINK-31611          
1 59325U 24057F   24093.58334491 -.01016077  00000+0 -44476-2 0  9997
2 59325  43.0028 269.4853 0001288 280.0372 250.2357 15.86121558  2403
STARLINK-31632          
1 59326U 24057G   24093.58334491 -.01018463  00000+0 -44482-2 0  9996
2 59326  43.0028 269.4819 0001391 268.7504 262.8083 15.86170974  2402
STARLINK-31599          
1 59327U 24057H   24093.58334491 -.01027891  00000+0 -44800-2 0  9996
2 59327  43.0027 269.4769 0001552 266.9128 266.6413 15.86234329  2401
STARLINK-31614          
1 59328U 24057J   24093.58334491 -.01034573  00000+0 -45000-2 0  9995
2 59328  43.0027 269.4724 0001434 268.1349 267.1934 15.86292782  2468
STARLINK-31493          
1 59329U 24057K   24093.58334491 -.01039755  00000+0 -45132-2 0  9999
2 59329  43.0027 269.4688 0001560 272.5228 264.2480 15.86345715  2462
STARLINK-31634          
1 59330U 24057L   24093.58334491 -.01048794  00000+0 -45434-2 0  9999
2 59330  43.0027 269.4634 0001358 265.9344 272.9124 15.86410018  2465
STARLINK-31633          
1 59331U 24057M   24093.58334491 -.01053196  00000+0 -45520-2 0  9998
2 59331  43.0027 269.4593 0001502 263.0881 277.4027 15.86465429  2464
STARLINK-31594          
1 59332U 24057N   24093.58334491 -.01055449  00000+0 -45521-2 0  9993
2 59332  43.0026 269.4559 0001458 264.3009 277.4204 15.86514049  2406
STARLINK-31572          
1 59333U 24057P   24093.58334491 -.01068676  00000+0 -45903-2 0  9994
2 59333  43.0025 269.4472 0001457 270.6594 274.4843 15.86628755  2404
STARLINK-31573          
1 59334U 24057Q   24093.58334491 -.01077339  00000+0 -46183-2 0  9992
2 59334  43.0025 269.4423 0001410 269.2889 277.7975 15.86690477  2403
STARLINK-31588          
1 59335U 24057R   24093.58334491 -.01061033  00000+0 -45661-2 0  9997
2 59335  43.0023 269.4516 0001513 263.2374 280.2400 15.86571435  2406
STARLINK-31596          
1 59336U 24057S   24093.58334491 -.01088376  00000+0 -46458-2 0  9992
2 59336  43.0023 269.4340 0001533 273.3997 276.9139 15.86801471  2460
STARLINK-31612          
1 59337U 24057T   24093.58334491 -.01082085  00000+0 -46273-2 0  9999
2 59337  43.0022 269.4381 0001665 259.3096 289.5475 15.86748259  2406
STARLINK-31550          
1 59338U 24057U   24093.58334491 -.01098192  00000+0 -46786-2 0  9995
2 59338  43.0022 269.4291 0001419 269.7855 282.6385 15.86865785  2400
STARLINK-31473          
1 59339U 24057V   24093.58334491 -.01102751  00000+0 -46878-2 0  9995
2 59339  43.0020 269.4252 0001469 268.2700 285.7106 15.86920053  2409
STARLINK-31562          
1 59340U 24057W   24093.58334491  .00351374  00000+0  10643-2 0  9992
2 59340  43.0025 269.4029 0002920 260.6549 302.1708 15.90435345  2455
STARLINK-31600          
1 59341U 24057X   24093.58334491 -.01119177  00000+0 -47382-2 0  9999
2 59341  43.0023 269.4158 0001647 270.5754 287.1075 15.87040096  2461
STARLINK-31628          
1 59342U 24057Y   24093.58334491 -.01124298  00000+0 -47503-2 0  9995
2 59342  43.0023 269.4123 0001556 271.2657 287.9367 15.87094105  2409
YUNHAI-3 02             
1 59343U 24058A   24093.60649618  .00000055  00000+0  52969-4 0  9995
2 59343  98.8243 101.5404 0001408 103.5970   5.7606 14.13309133   948
